NORAD_CAT_ID,OBJECT_NAME,OBJECT_TYPE,EPOCH,MEAN_MOTION,ECCENTRICITY,INCLINATION,RA_OF_ASC_NODE,ARG_OF_PERICENTER,MEAN_ANOMALY,BSTAR,MEAN_MOTION_DOT,MEAN_MOTION_DDOT,TLE_LINE0,TLE_LINE1,TLE_LINE2,SEMIMAJOR_AXIS,PERIOD,APOGEE,PERIGEE,DECAYED
52865.0,STARLINK-4274,PAYLOAD,2022-07-16 22:00:00,15.73248421,0.0002818,53.2142,259.3913,19.123,121.636,-0.00042013,-0.00059306,0.0,0 STARLINK-4274,1 52865U 22062AM  22197.91667824 -.00059306  00000-0 -42013-3 0  9990,2 52865  53.2142 259.3913 0002818  19.1230 121.6360 15.73248421  5126,6727.757,91.53,351.51800000000014,347.726,0.0
52865.0,STARLINK-4274,PAYLOAD,2022-07-17 14:00:01,15.73277909,0.0003036,53.2154,256.0943,17.3457,301.3207,-0.0021533,-0.00293618,0.0,0 STARLINK-4274,1 52865U 22062AM  22198.58334491 -.00293618  00000-0 -21533-2 0  9994,2 52865  53.2154 256.0943 0003036  17.3457 301.3207 15.73277909  5232,6727.6730000000025,91.529,351.581,347.496,0.0
52865.0,STARLINK-4274,PAYLOAD,2022-07-17 22:00:00,15.73049298,0.0003084,53.2172,254.4422,19.5884,27.9743,0.0017201,0.00246427,0.0,0 STARLINK-4274,1 52865U 22062AM  22198.91667824  .00246427  00000-0  17201-2 0  9991,2 52865  53.2172 254.4422 0003084  19.5884  27.9743 15.73049298  5286,6728.325,91.542,352.265,348.115,0.0
52865.0,STARLINK-4274,PAYLOAD,2022-07-18 06:00:00,15.7296627,0.0002638,53.2169,252.7911,19.1943,117.3591,0.0024906,0.00360739,0.0,0 STARLINK-4274,1 52865U 22062AM  22199.25001157  .00360739  00000-0  24906-2 0  9993,2 52865  53.2169 252.7911 0002638  19.1943 117.3591 15.72966270  5330,6728.562,91.547,352.202,348.652,0.0
52865.0,STARLINK-4274,PAYLOAD,2022-07-18 14:00:01,15.73200887,0.0002934,53.2176,251.1445,18.0678,207.2841,5.0088e-05,6.414e-05,0.0,0 STARLINK-4274,1 52865U 22062AM  22199.58334491  .00006414  00000-0  50088-4 0  9998,2 52865  53.2176 251.1445 0002934  18.0678 207.2841 15.73200887  5383,6727.893,91.533,351.732,347.784,0.0
52865.0,STARLINK-4274,PAYLOAD,2022-07-18 22:00:00,15.73204537,0.0002946,53.2175,249.4929,12.0913,302.1951,-5.4632000000000005e-06,-1.39e-05,0.0,0 STARLINK-4274,1 52865U 22062AM  22199.91667824 -.00001390  00000-0 -54632-5 0  9994,2 52865  53.2175 249.4929 0002946  12.0913 302.1951 15.73204537  1309,6727.882,91.533,351.72900000000016,347.765,0.0
52865.0,STARLINK-4274,PAYLOAD,2022-07-19 06:00:00,15.73235442,0.000293,53.2142,247.8442,13.3943,29.9458,-0.00051879,-0.00072932,0.0,0 STARLINK-4274,1 52865U 22062AM  22200.25001157 -.00072932  00000-0 -51879-3 0  9993,2 52865  53.2142 247.8442 0002930  13.3943  29.9458 15.73235442  5494,6727.794,91.531,351.63,347.68800000000016,0.0
52865.0,STARLINK-4274,PAYLOAD,2022-07-19 14:00:01,15.73179852,0.0003155,53.2139,246.1961,10.3016,121.9799,0.00037299,0.00052015,0.0,0 STARLINK-4274,1 52865U 22062AM  22200.58334491  .00052015  00000-0  37299-3 0  9997,2 52865  53.2139 246.1961 0003155  10.3016 121.9799 15.73179852  1305,6727.953,91.534,351.94,347.695,0.0
52865.0,STARLINK-4274,PAYLOAD,2022-07-19 22:00:00,15.73120545,0.0003063,53.2161,244.5443,10.8311,210.4064,-0.00023134,-0.00032861,0.0,0 STARLINK-4274,1 52865U 22062AM  22200.91667824 -.00032861  00000-0 -23134-3 0  9995,2 52865  53.2161 244.5443 0003063  10.8311 210.4064 15.73120545  1302,6728.121999999999,91.538,352.048,347.926,0.0
52865.0,STARLINK-4274,PAYLOAD,2022-07-20 04:00:00,15.73192908,0.000294,53.2145,243.3073,7.0654,190.7027,0.00046859,0.00065648,0.0,0 STARLINK-4274,1 52865U 22062AM  22201.16667824  .00065648  00000-0  46859-3 0  9999,2 52865  53.2145 243.3073 0002940   7.0654 190.7027 15.73192908  5632,6727.915,91.534,351.7580000000001,347.802,0.0
52865.0,STARLINK-4274,PAYLOAD,2022-07-20 14:00:01,15.73245897,0.0003362,53.2143,241.2474,7.6245,31.3268,0.00010207,0.00013757,0.0,0 STARLINK-4274,1 52865U 22062AM  22201.58334491  .00013757  00000-0  10207-3 0  9998,2 52865  53.2143 241.2474 0003362   7.6245  31.3268 15.73245897  1306,6727.764,91.531,351.891,347.367,0.0
52865.0,STARLINK-4274,PAYLOAD,2022-07-20 22:00:01,15.73211081,0.0003106999999999,53.2144,239.5957,8.2677,119.7343,-0.00048684,-0.00068447,0.0,0 STARLINK-4274,1 52865U 22062AM  22201.91668981 -.00068447  00000-0 -48684-3 0  9997,2 52865  53.2144 239.5957 0003107   8.2677 119.7343 15.73211081  5752,6727.864000000001,91.533,351.819,347.63800000000015,0.0
52865.0,STARLINK-4274,PAYLOAD,2022-07-21 14:00:01,15.73109014,0.0003455,53.2138,236.299,11.5728,294.2018,0.00057996,0.00081264,0.0,0 STARLINK-4274,1 52865U 22062AM  22202.58335648  .00081264  00000-0  57996-3 0  9998,2 52865  53.2138 236.2990 0003455  11.5728 294.2018 15.73109014  5868,6728.155,91.538,352.344,347.695,0.0
52865.0,STARLINK-4274,PAYLOAD,2022-07-21 22:00:00,15.73130393,0.0003183,53.2141,234.6475,13.6401,20.9251,0.0005868,0.00082312,0.0,0 STARLINK-4274,1 52865U 22062AM  22202.91667824  .00082312  00000-0  58680-3 0  9995,2 52865  53.2141 234.6475 0003183  13.6401  20.9251 15.73130393  1303,6728.094,91.537,352.1,347.81699999999995,0.0
52865.0,STARLINK-4274,PAYLOAD,2022-07-22 06:00:00,15.73211266,0.0003328,53.2142,232.9989,15.4062,108.0425,0.00014111,0.00019241,0.0,0 STARLINK-4274,1 52865U 22062AM  22203.25001157  .00019241  00000-0  14111-3 0  9996,2 52865  53.2142 232.9989 0003328  15.4062 108.0425 15.73211266  5965,6727.863,91.533,351.967,347.48900000000015,0.0
52865.0,STARLINK-4274,PAYLOAD,2022-07-22 22:00:00,15.73250126,0.0003288,53.214,229.6989,14.8716,286.51,0.0004843,0.0006806,0.0,0 STARLINK-4274,1 52865U 22062AM  22203.91667824  .00068060  00000-0  48430-3 0  9992,2 52865  53.2140 229.6989 0003288  14.8716 286.5100 15.73250126  6073,6727.752,91.53,351.829,347.405,0.0
52865.0,STARLINK-4274,PAYLOAD,2022-07-23 08:00:01,15.73262772,0.0003432,53.2145,227.6387,11.5011,131.1578,-0.00062621,-0.00087864,0.0,0 STARLINK-4274,1 52865U 22062AM  22204.33334491 -.00087864  00000-0 -62621-3 0  9993,2 52865  53.2145 227.6387 0003432  11.5011 131.1578 15.73262772  6132,6727.715999999999,91.53,351.89,347.272,0.0
52865.0,STARLINK-4274,PAYLOAD,2022-07-23 14:00:01,15.73330272,0.0003484,53.2154,226.4014,12.9244,106.5237,-0.0019699,-0.00270046,0.0,0 STARLINK-4274,1 52865U 22062AM  22204.58335648 -.00270046  00000-0 -19699-2 0  9997,2 52865  53.2154 226.4014 0003484  12.9244 106.5237 15.73330272  1309,6727.524,91.526,351.733,347.045,0.0
52865.0,STARLINK-4274,PAYLOAD,2022-07-23 16:00:00,15.73243648,0.0003453,53.2156,225.9883,14.3794,217.2738,-0.0010822,-0.00150168,0.0,0 STARLINK-4274,1 52865U 22062AM  22204.66667824 -.00150168  00000-0 -10822-2 0  9991,2 52865  53.2156 225.9883 0003453  14.3794 217.2738 15.73243648  6199,6727.771,91.531,351.959,347.31300000000016,0.0
52865.0,STARLINK-4274,PAYLOAD,2022-07-23 22:00:00,15.7323807,0.0003171999999999,53.2133,224.7498,7.752999999999999,200.64,-0.00015282,-0.00022055,0.0,0 STARLINK-4274,1 52865U 22062AM  22204.91667824 -.00022055  00000-0 -15282-3 0  9998,2 52865  53.2133 224.7498 0003172   7.7530 200.6400 15.73238070  1308,6727.7869999999975,91.531,351.786,347.51800000000014,0.0
52865.0,STARLINK-4274,PAYLOAD,2022-07-24 14:00:01,15.7316682,0.0003535,53.2131,221.4526,3.9377,22.3283,0.00020856,0.00028714,0.0,0 STARLINK-4274,1 52865U 22062AM  22205.58334491  .00028714  00000-0  20856-3 0  9992,2 52865  53.2131 221.4526 0003535   3.9377  22.3283 15.73166820  1303,6727.99,91.535,352.233,347.476,0.0
52865.0,STARLINK-4274,PAYLOAD,2022-07-24 22:00:00,15.73146133,0.0003273,53.2132,219.8012,7.2084,107.9666,0.00017408,0.00023827,0.0,0 STARLINK-4274,1 52865U 22062AM  22205.91667824  .00023827  00000-0  17408-3 0  9997,2 52865  53.2132 219.8012 0003273   7.2084 107.9666 15.73146133  1306,6728.049,91.536,352.116,347.712,0.0
52865.0,STARLINK-4274,PAYLOAD,2022-07-25 06:00:00,15.7316145,0.0003466,53.2129,218.1533,10.2572,193.7822,7.384899999999999e-05,9.739e-05,0.0,0 STARLINK-4274,1 52865U 22062AM  22206.25001157  .00009739  00000-0  73849-4 0  9994,2 52865  53.2129 218.1533 0003466  10.2572 193.7822 15.73161450  6437,6728.005,91.535,352.202,347.538,0.0
52865.0,STARLINK-4274,PAYLOAD,2022-07-25 14:00:01,15.73177432,0.0003567,53.213,216.5041,9.9404,282.976,0.00021243,0.00029274,0.0,0 STARLINK-4274,1 52865U 22062AM  22206.58334491  .00029274  00000-0  21243-3 0  9996,2 52865  53.2130 216.5041 0003567   9.9404 282.9760 15.73177432  1306,6727.96,91.534,352.224,347.425,0.0
52865.0,STARLINK-4274,PAYLOAD,2022-07-25 22:00:00,15.73167972,0.0003299,53.2138,214.8527,12.2175,9.6142,0.00056584,0.00079452,0.0,0 STARLINK-4274,1 52865U 22062AM  22206.91667824  .00079452  00000-0  56584-3 0  9991,2 52865  53.2138 214.8527 0003299  12.2175   9.6142 15.73167972  1304,6727.986,91.535,352.071,347.63199999999995,0.0
52865.0,STARLINK-4274,PAYLOAD,2022-07-26 14:00:01,15.73247612,0.0003578,53.2143,211.5554,12.3178,187.385,6.7048e-05,8.818e-05,0.0,0 STARLINK-4274,1 52865U 22062AM  22207.58334491  .00008818  00000-0  67048-4 0  9992,2 52865  53.2143 211.5554 0003578  12.3178 187.3850 15.73247612  1308,6727.759,91.53,352.032,347.217,0.0
52865.0,STARLINK-4274,PAYLOAD,2022-07-26 22:00:00,15.73244285,0.000334,53.2144,209.9039,12.6863,276.0175,-8.3231e-05,-0.00012313,0.0,0 STARLINK-4274,1 52865U 22062AM  22207.91667824 -.00012313  00000-0 -83231-4 0  9997,2 52865  53.2144 209.9039 0003340  12.6863 276.0175 15.73244285  1308,6727.769,91.531,351.881,347.38699999999994,0.0
52865.0,STARLINK-4274,PAYLOAD,2022-07-27 06:00:02,15.73238305,0.0003533999999999,53.2142,208.256,11.5846,6.1607,6.745399999999999e-07,-5.29e-06,0.0,0 STARLINK-4274,1 52865U 22062AM  22208.25002315 -.00000529  00000-0  67454-6 0  9999,2 52865  53.2142 208.2560 0003534  11.5846   6.1607 15.73238305  6753,6727.786,91.531,352.029,347.273,0.0
52865.0,STARLINK-4274,PAYLOAD,2022-07-27 14:00:01,15.73352728,0.0003242,53.2137,206.6057,4.8071,102.1094,-0.00080149,-0.00112388,0.0,0 STARLINK-4274,1 52865U 22062AM  22208.58334491 -.00112388  00000-0 -80149-3 0  9999,2 52865  53.2137 206.6057 0003242   4.8071 102.1094 15.73352728  1300,6727.46,91.524,351.506,347.144,0.0
